{
    "links": {
        "self": "http://www.neowsapp.com/rest/v1/neo/54016480?api_key=iIulBulltgU6a56xZRHN4H3l9WmuAYTsLGpBGhQ2"
    },
    "id": "54016480",
    "neo_reference_id": "54016480",
    "name": "(2020 GV1)",
    "designation": "2020 GV1",
    "nasa_jpl_url": "http://ssd.jpl.nasa.gov/sbdb.cgi?sstr=54016480",
    "absolute_magnitude_h": 27.87,
    "estimated_diameter": {
        "kilometers": {
            "estimated_diameter_min": 0.0070885103,
            "estimated_diameter_max": 0.015850391
        },
        "meters": {
            "estimated_diameter_min": 7.0885103303,
            "estimated_diameter_max": 15.8503909578
        },
        "miles": {
            "estimated_diameter_min": 0.0044045948,
            "estimated_diameter_max": 0.0098489733
        },
        "feet": {
            "estimated_diameter_min": 23.2562682321,
            "estimated_diameter_max": 52.0025966698
        }
    },
    "is_potentially_hazardous_asteroid": false,
    "close_approach_data": [
        {
            "close_approach_date": "2020-04-05",
            "close_approach_date_full": "2020-Apr-05 23:59",
            "epoch_date_close_approach": 1586131140000,
            "relative_velocity": {
                "kilometers_per_second": "9.2529157972",
                "kilometers_per_hour": "33310.4968698296",
                "miles_per_hour": "20697.8473467005"
            },
            "miss_distance": {
                "astronomical": "0.0165156502",
                "lunar": "6.4245879278",
                "kilometers": "2470706.091585074",
                "miles": "1535225.5759550612"
            },
            "orbiting_body": "Earth"
        },
        {
            "close_approach_date": "2079-06-22",
            "close_approach_date_full": "2079-Jun-22 01:10",
            "epoch_date_close_approach": 3454621800000,
            "relative_velocity": {
                "kilometers_per_second": "13.3849698291",
                "kilometers_per_hour": "48185.8913848882",
                "miles_per_hour": "29940.8390107934"
            },
            "miss_distance": {
                "astronomical": "0.1394726789",
                "lunar": "54.2548720921",
                "kilometers": "20864815.686633943",
                "miles": "12964795.2821286934"
            },
            "orbiting_body": "Earth"
        }
    ],
    "orbital_data": {
        "orbit_id": "1",
        "orbit_determination_date": "2020-04-05 08:12:19",
        "first_observation_date": "2020-04-03",
        "last_observation_date": "2020-04-05",
        "data_arc_in_days": 2,
        "observations_used": 13,
        "orbit_uncertainty": "8",
        "minimum_orbit_intersection": ".00224316",
        "jupiter_tisserand_invariant": "3.426",
        "epoch_osculation": "2458943.5",
        "eccentricity": ".559033737088104",
        "semi_major_axis": "2.221044026724281",
        "inclination": ".8561503545732909",
        "ascending_node_longitude": "12.61253919266728",
        "orbital_period": "1209.021928910745",
        "perihelion_distance": ".9794054842273957",
        "perihelion_argument": "209.0620601177793",
        "aphelion_distance": "3.462682569221167",
        "perihelion_time": "2458965.340478163179",
        "mean_anomaly": "353.4967497687754",
        "mean_motion": ".2977613485673813",
        "equinox": "J2000",
        "orbit_class": {
            "orbit_class_type": "APO",
            "orbit_class_description": "Near-Earth asteroid orbits which cross the Earth’s orbit similar to that of 1862 Apollo",
            "orbit_class_range": "a (semi-major axis) > 1.0 AU; q (perihelion) < 1.017 AU"
        }
    },
    "is_sentry_object": false
}